[{"OBJECT_NAME":"SITRO-AIS 17","OBJECT_ID":"2024-199BG","EPOCH":"2026-03-09T22:41:43.974240","MEAN_MOTION":14.97395626,"ECCENTRICITY":0.0007298,"INCLINATION":97.3319,"RA_OF_ASC_NODE":274.6922,"ARG_OF_PERICENTER":55.1829,"MEAN_ANOMALY":305.008,"EPHEMERIS_TYPE":0,"CLASSIFICATION_TYPE":"U","NORAD_CAT_ID":61789,"ELEMENT_SET_NO":999,"REV_AT_EPOCH":11718,"BSTAR":0.00028776531,"MEAN_MOTION_DOT":3.293e-5,"MEAN_MOTION_DDOT":0},{"OBJECT_NAME":"STARLINK-35768","OBJECT_ID":"2025-280M","EPOCH":"2026-03-09T22:51:15.171552","MEAN_MOTION":14.98340428,"ECCENTRICITY":0.00025282,"INCLINATION":70.0022,"RA_OF_ASC_NODE":333.8535,"ARG_OF_PERICENTER":242.7162,"MEAN_ANOMALY":117.374,"EPHEMERIS_TYPE":0,"CLASSIFICATION_TYPE":"U","NORAD_CAT_ID":66832,"ELEMENT_SET_NO":999,"REV_AT_EPOCH":1611,"BSTAR":0.00028168283,"MEAN_MOTION_DOT":3.27e-5,"MEAN_MOTION_DDOT":0}]
